OBJECT_NAME,OBJECT_ID,EPOCH,MEAN_MOTION,ECCENTRICITY,INCLINATION,RA_OF_ASC_NODE,ARG_OF_PERICENTER,MEAN_ANOMALY,EPHEMERIS_TYPE,CLASSIFICATION_TYPE,NORAD_CAT_ID,ELEMENT_SET_NO,REV_AT_EPOCH,BSTAR,MEAN_MOTION_DOT,MEAN_MOTION_DDOT
STARLINK-35746,2025-268AB,2026-06-12T16:49:24.180384,15.27614520,.000345,42.9937,170.2069,276.7148,83.3311,0,U,66582,999,3249,.78850704E-3,.21524E-3,0
STARLINK-35941,2025-268AC,2026-06-13T06:51:16.523424,15.27600223,.0001196,43.0074,166.8639,273.0500,87.0215,0,U,66583,999,3258,.84792E-3,.23158E-3,0
STARLINK-35939,2025-268AD,2026-06-13T06:45:43.301088,15.27599286,.0002396,42.9986,166.8276,271.9970,88.0607,0,U,66584,999,3258,.5779E-3,.15684E-3,0
STARLINK-35963,2025-268AE,2026-06-13T22:12:42.570144,15.27599781,.0001824,43.0008,163.9318,283.7409,76.3240,0,U,66585,999,3267,.19584E-3,.5134E-4,0
STARLINK-36076,2025-270A,2026-06-13T21:39:49.985568,15.27637969,.0001542,42.9996,232.5481,269.3294,90.7381,0,U,66588,999,3242,.56147E-3,.15248E-3,0
STARLINK-35447,2025-270B,2026-06-12T11:38:00.261600,15.27603983,.00015019,42.9997,240.8265,275.2119,84.8561,0,U,66589,999,3231,.1028265E-2,.28162E-3,0
STARLINK-35429,2025-270C,2026-06-13T21:19:41.299680,15.27598991,.0002586,42.9878,233.3008,269.5467,90.5088,0,U,66590,999,3252,.85918E-3,.23471E-3,0
STARLINK-36058,2025-270D,2026-06-12T11:45:24.224544,15.27595964,.00030069,43.0042,240.8638,279.1133,80.9378,0,U,66591,999,3220,.58121864E-3,.15775E-3,0
STARLINK-36066,2025-270E,2026-06-13T21:01:14.104416,15.27552904,.000191,43.0010,233.2060,264.8118,95.2515,0,U,66592,999,3231,.10916E-2,.29873E-3,0
STARLINK-36031,2025-270F,2026-06-13T21:49:04.920672,15.27619070,.000339,43.0087,232.5934,273.7422,86.3042,0,U,66593,999,3242,.52795E-3,.14312E-3,0
STARLINK-36032,2025-270G,2026-06-13T20:57:29.435040,15.27602727,.000025,43.0033,233.1833,95.0109,265.0771,0,U,66594,999,3222,.69021E-3,.18792E-3,0
STARLINK-35711,2025-270H,2026-06-13T21:54:40.517280,15.27556264,.0001886,43.0021,232.6199,266.2628,93.8007,0,U,66595,999,3253,.86515E-3,.23604E-3,0
STARLINK-35811,2025-270J,2026-06-13T21:12:17.495712,15.27595435,.0002196,42.9982,233.2625,274.9646,85.0955,0,U,66596,999,3252,.75949E-3,.20707E-3,0
STARLINK-35820,2025-270K,2026-06-13T08:13:08.328864,15.27613330,.00036495,43.0030,236.0855,286.0773,73.9676,0,U,66597,999,3244,.60447445E-3,.16427E-3,0
STARLINK-35981,2025-270L,2026-06-13T21:32:26.154816,15.27589962,.000173,43.0037,232.5032,272.7014,87.3640,0,U,66598,999,3227,.48215E-3,.13033E-3,0
STARLINK-35930,2025-270M,2026-06-12T11:34:18.177312,15.27606058,.00017839,43.0021,240.8021,283.6950,76.3703,0,U,66599,999,3220,.90722963E-3,.24807E-3,0
STARLINK-35980,2025-270N,2026-06-13T21:08:35.288736,15.27594434,.0002092,42.9949,233.2370,274.4901,85.5712,0,U,66600,999,3231,.80302E-3,.21911E-3,0
STARLINK-35978,2025-270P,2026-06-13T11:04:49.362816,15.27602088,.00004756,42.9979,235.2560,225.0377,135.0436,0,U,66601,999,3219,.71458887E-3,.19467E-3,0
STARLINK-36050,2025-270Q,2026-06-13T21:06:44.554176,15.27586101,.000276,42.9916,233.2295,287.9809,72.0742,0,U,66602,999,3231,.54721E-3,.1483E-3,0
STARLINK-36048,2025-270R,2026-06-13T21:43:32.113056,15.27593399,.0002141,43.0042,232.5615,268.8074,91.2533,0,U,66603,999,3232,.73979E-3,.2016E-3,0
STARLINK-35977,2025-270S,2026-06-13T21:26:52.552320,15.27576920,.0002898,43.0021,232.4761,261.6327,98.4196,0,U,66604,999,3242,.72366E-3,.19704E-3,0
STARLINK-36052,2025-270T,2026-06-13T11:26:59.884800,15.27636852,.00018159,42.9924,235.3590,123.4033,236.6993,0,U,66605,999,3235,.74504747E-3,.20332E-3,0
STARLINK-36063,2025-270U,2026-06-13T21:50:55.637088,15.27621960,.0004006,43.0161,232.5934,269.3813,90.6580,0,U,66606,999,3242,.54906E-3,.14898E-3,0
STARLINK-35993,2025-270V,2026-06-13T11:23:17.947392,15.27588890,.00021333,43.0014,235.3467,284.5970,75.4645,0,U,66607,999,3225,.67976351E-3,.18496E-3,0
STARLINK-36036,2025-270W,2026-06-13T21:45:24.986016,15.27587910,.0001958,43.0032,232.5662,265.9731,94.0896,0,U,66608,999,3226,.6115E-3,.16607E-3,0
STARLINK-36034,2025-270X,2026-06-13T21:17:50.540928,15.27575733,.0001285,42.9986,233.2828,278.2741,81.7965,0,U,66609,999,3225,.10681E-4,.32E-6,0
STARLINK-35680,2025-270Y,2026-06-13T00:00:02.000160,15.27576222,.00014948,43.0016,237.9259,269.0477,41.0485,0,U,66610,999,587,-.282175E-4,-.1038E-4,0
STARLINK-35583,2025-270Z,2026-06-13T22:00:12.225888,15.27589555,.0000755,42.9966,232.6438,129.1321,230.9598,0,U,66611,999,3253,.56834E-3,.15415E-3,0
STARLINK-36039,2025-270AA,2026-06-12T21:23:17.021472,15.27616323,.00033938,42.9969,238.7089,275.9667,84.0798,0,U,66612,999,3226,.75329388E-3,.2055E-3,0
STARLINK-36037,2025-270AB,2026-06-12T11:43:33.369888,15.27599502,.00023171,43.0010,240.8515,276.3236,83.7352,0,U,66613,999,3220,.70310562E-3,.19148E-3,0
