STARLINK-35746          
1 66582U 25268AB  26163.70097431  .00021524  00000+0  78851-3 0  9994
2 66582  42.9937 170.2069 0003450 276.7148  83.3311 15.27614520 32495
STARLINK-35941          
1 66583U 25268AC  26164.28560791  .00023158  00000+0  84792-3 0  9999
2 66583  43.0074 166.8639 0001196 273.0500  87.0215 15.27600223 32580
STARLINK-35939          
1 66584U 25268AD  26164.28175117  .00015684  00000+0  57790-3 0  9997
2 66584  42.9986 166.8276 0002396 271.9970  88.0607 15.27599286 32581
STARLINK-35963          
1 66585U 25268AE  26164.92549271  .00005134  00000+0  19584-3 0  9993
2 66585  43.0008 163.9318 0001824 283.7409  76.3240 15.27599781 32670
STARLINK-36076          
1 66588U 25270A   26164.90266187  .00015248  00000+0  56147-3 0  9992
2 66588  42.9996 232.5481 0001542 269.3294  90.7381 15.27637969 32420
STARLINK-35447          
1 66589U 25270B   26163.48472525  .00028162  00000+0  10283-2 0  9999
2 66589  42.9997 240.8265 0001501 275.2119  84.8561 15.27603983 32312
STARLINK-35429          
1 66590U 25270C   26164.88867245  .00023471  00000+0  85918-3 0  9999
2 66590  42.9878 233.3008 0002586 269.5467  90.5088 15.27598991 32523
STARLINK-36058          
1 66591U 25270D   26163.48986371  .00015775  00000+0  58122-3 0  9992
2 66591  43.0042 240.8638 0003006 279.1133  80.9378 15.27595964 32203
STARLINK-36066          
1 66592U 25270E   26164.87585769  .00029873  00000+0  10916-2 0  9995
2 66592  43.0010 233.2060 0001910 264.8118  95.2515 15.27552904 32311
STARLINK-36031          
1 66593U 25270F   26164.90908473  .00014312  00000+0  52795-3 0  9995
2 66593  43.0087 232.5934 0003390 273.7422  86.3042 15.27619070 32425
STARLINK-36032          
1 66594U 25270G   26164.87325735  .00018792  00000+0  69021-3 0  9992
2 66594  43.0033 233.1833 0000250  95.0109 265.0771 15.27602727 32225
STARLINK-35711          
1 66595U 25270H   26164.91296895  .00023604  00000+0  86515-3 0  9997
2 66595  43.0021 232.6199 0001886 266.2628  93.8007 15.27556264 32533
STARLINK-35811          
1 66596U 25270J   26164.88353583  .00020707  00000+0  75949-3 0  9992
2 66596  42.9982 233.2625 0002196 274.9646  85.0955 15.27595435 32527
STARLINK-35820          
1 66597U 25270K   26164.34245751  .00016427  00000+0  60447-3 0  9992
2 66597  43.0030 236.0855 0003649 286.0773  73.9676 15.27613330 32441
STARLINK-35981          
1 66598U 25270L   26164.89752494  .00013033  00000+0  48215-3 0  9999
2 66598  43.0037 232.5032 0001730 272.7014  87.3640 15.27589962 32270
STARLINK-35930          
1 66599U 25270M   26163.48215483  .00024807  00000+0  90723-3 0  9998
2 66599  43.0021 240.8021 0001783 283.6950  76.3703 15.27606058 32209
STARLINK-35980          
1 66600U 25270N   26164.88096399  .00021911  00000+0  80302-3 0  9994
2 66600  42.9949 233.2370 0002092 274.4901  85.5712 15.27594434 32318
STARLINK-35978          
1 66601U 25270P   26164.46168244  .00019467  00000+0  71459-3 0  9994
2 66601  42.9979 235.2560 0000475 225.0377 135.0436 15.27602088 32192
STARLINK-36050          
1 66602U 25270Q   26164.87968234  .00014830  00000+0  54721-3 0  9999
2 66602  42.9916 233.2295 0002760 287.9809  72.0742 15.27586101 32314
STARLINK-36048          
1 66603U 25270R   26164.90523279  .00020160  00000+0  73979-3 0  9999
2 66603  43.0042 232.5615 0002141 268.8074  91.2533 15.27593399 32329
STARLINK-35977          
1 66604U 25270S   26164.89366380  .00019704  00000+0  72366-3 0  9997
2 66604  43.0021 232.4761 0002898 261.6327  98.4196 15.27576920 32425
STARLINK-36052          
1 66605U 25270T   26164.47708200  .00020332  00000+0  74505-3 0  9999
2 66605  42.9924 235.3590 0001815 123.4033 236.6993 15.27636852 32359
STARLINK-36063          
1 66606U 25270U   26164.91036617  .00014898  00000+0  54906-3 0  9998
2 66606  43.0161 232.5934 0004006 269.3813  90.6580 15.27621960 32429
STARLINK-35993          
1 66607U 25270V   26164.47451328  .00018496  00000+0  67976-3 0  9999
2 66607  43.0014 235.3467 0002133 284.5970  75.4645 15.27588890 32259
STARLINK-36036          
1 66608U 25270W   26164.90653919  .00016607  00000+0  61150-3 0  9998
2 66608  43.0032 232.5662 0001958 265.9731  94.0896 15.27587910 32266
STARLINK-36034          
1 66609U 25270X   26164.88739052  .00000032  00000+0  10681-4 0  9998
2 66609  42.9986 233.2828 0001285 278.2741  81.7965 15.27575733 32255
STARLINK-35680          
1 66610U 25270Y   26164.00002315 -.00001038  00000+0 -28217-4 0  9992
2 66610  43.0016 237.9259 0001494 269.0477  41.0485 15.27576222  5876
STARLINK-35583          
1 66611U 25270Z   26164.91680817  .00015415  00000+0  56834-3 0  9999
2 66611  42.9966 232.6438 0000755 129.1321 230.9598 15.27589555 32533
STARLINK-36039          
1 66612U 25270AA  26163.89116923  .00020550  00000+0  75329-3 0  9994
2 66612  42.9969 238.7089 0003393 275.9667  84.0798 15.27616323 32264
STARLINK-36037          
1 66613U 25270AB  26163.48858067  .00019148  00000+0  70311-3 0  9999
2 66613  43.0010 240.8515 0002317 276.3236  83.7352 15.27599502 32209
